#aV2011  7 19  0  0   .00000000      96 DD+AD WGS84 FIT  NGA
## 1645 172800.00000000   900.00000000 55761  .0000000000000
+   31     2  3  4  5  6  7  8  9 10 11 12 13 14 15 16 17 18
+         19 20 21 22 23 24 25 26 27 28 29 30 31 32  0  0  0
+          0  0  0  0  0  0  0  0  0  0  0  0  0  0  0  0  0
+          0  0  0  0  0  0  0  0  0  0  0  0  0  0  0  0  0
+          0  0  0  0  0  0  0  0  0  0  0  0  0  0  0  0  0
++         0  0  0  0  0  0  0  0  0  0  0  0  0  0  0  0  0
++         0  0  0  0  0  0  0  0  0  0  0  0  0  0  0  0  0
++         0  0  0  0  0  0  0  0  0  0  0  0  0  0  0  0  0
++         0  0  0  0  0  0  0  0  0  0  0  0  0  0  0  0  0
++         0  0  0  0  0  0  0  0  0  0  0  0  0  0  0  0  0
%c cc cc ccc ccc cccc cccc cccc cccc ccccc ccccc ccccc ccccc
%c cc cc ccc ccc cccc cccc cccc cccc ccccc ccccc ccccc ccccc
%f  0.0000000  0.000000000  0.00000000000  0.000000000000000
%f  0.0000000  0.000000000  0.00000000000  0.000000000000000
%i    0    0    0    0      0      0      0      0         0
%i    0    0    0    0      0      0      0      0         0
/*      NGA, ST. LOUIS,MO.                                  
/*   EPHEMERIS COMPUTED FROM  3 DAYS OF DATA                
/* CCCCCCCCCCCCCCCCCCCCCCCCCCCCCCCCCCCCCCCCCCCCCCCCCCCCCCCCC
/* CCCCCCCCCCCCCCCCCCCCCCCCCCCCCCCCCCCCCCCCCCCCCCCCCCCCCCCCC
*  2011  7 19 23 15   .00000000                                                 
P  2 -13985.165390 -17334.715510 -14766.645507    347.391554                    
V  2   -989.453401 -18828.742476  22454.597977       .018024                    
P  3  23299.216251  11219.432514  -7166.994519    743.958677                    
V  3  -9038.788510   1132.294300 -29072.122369       .049328                    
P  4  -6304.661926 -25439.242335  -3152.741247    177.030505                    
V  4   3160.930672  -4340.312801  31113.445581       .108708                    
P  5 -15890.042782  -5859.184683 -20497.518801   -191.731200                    
V  5  19620.731278 -17082.947521 -10226.812687      -.055129                    
P  6  20296.660657  14174.012470  -9791.756729    -48.753941                    
V  6 -12933.465041  -1014.595890 -27609.913587      -.853729                    
P  7   6921.742831 -20978.777812 -14573.313840     18.557125                    
V  7   4601.024623  18096.547107 -24081.377622       .014646                    
P  8   2192.855923 -25445.076520  -6078.993468      8.555484                    
V  8   2612.415081   7689.931450 -31647.598872       .001462                    
P  9 -14221.473268   2613.795515  21725.223930     93.798319                    
V  9  -4987.234770 -28441.095145    139.758048       .025192                    
P 10   -418.274608 -17704.908613 -19897.653468     -7.307612                    
V 10  20623.689803 -14113.032993  12630.185783      -.012851                    
P 11  17345.758854   -597.852003  19831.729388   -169.530762                    
V 11   9480.795056  24440.718802  -7085.503465      -.034000                    
P 12 -22801.811596  10360.419641   8585.732306     10.252372                    
V 12   7215.415103  -8507.468854  29639.749474       .025260                    
P 13  14047.728570  -8538.098174 -21019.638184    260.349323                    
V 13  23388.410013  11973.956967  10769.153434      -.017860                    
P 14   5900.811606  17096.557600  19667.227504    162.511866                    
V 14 -22673.333297  -9354.150666  14915.855499       .020577                    
P 15 -25224.565260  -3077.738213   8022.101762   -115.046048                    
V 15  -8570.919203  -6117.331479 -29156.547653       .020013                    
P 16  15935.550489   5447.283502 -20601.893652   -186.489308                    
V 16 -20459.845099  16160.921883 -11248.121494      -.024003                    
P 17  -6943.523515 -17373.337627  19081.300509    181.908191                    
V 17  22444.544040   8157.725336  15489.137865      -.011485                    
P 18 -14138.806267  20191.030875   9707.774051    148.043053                    
V 18 -11664.181206   4628.130692 -27926.809028       .019055                    
P 19  24971.204693   7709.298403   5707.521045   -163.854214                    
V 19   5383.577500   5370.986599 -30388.230253      -.041043                    
P 20  22138.378779 -13134.137897   6270.499498     50.860315                    
V 20  -3791.931235   8115.116932  29771.531750       .003589                    
P 21  -5356.319002  22753.820338 -11592.927908   -158.994811                    
V 21  -5946.521769 -14958.361053 -26282.373008      -.025663                    
P 22  -2568.559136  19228.749046  18271.914522    146.119756                    
V 22 -19387.043238  12513.535821 -16164.204144      -.005626                    
P 23  22258.020392  -2020.894638 -14613.588125    290.597934                    
V 23  16443.147687   8496.308972  23500.820651      -.028856                    
P 24  14749.641976  -6002.742805  21272.791035    408.058759                    
V 24   3396.841645  26774.112264   5507.130187       .031946                    
P 25 -19086.625853  18248.190006  -2735.862316      9.871400                    
V 25  -4375.489615    113.516584  31606.858961       .018657                    
P 26 -23063.369335 -13355.005545  -3161.993152    -96.299242                    
V 26   3595.769564    -41.108373 -31744.829570      -.120999                    
P 27 -15680.178522  -4089.167339  21760.244991    286.346261                    
V 27  -4850.717533 -25532.914320  -8211.745423       .037132                    
P 28   6598.451548 -19408.806331  17266.589552     53.144087                    
V 28  17776.453799 -11261.854886 -20310.158453       .028241                    
P 29 -14973.087603   8739.076761 -20036.818784    224.538083                    
V 29 -23069.689248 -11179.451298  12362.409148       .030124                    
P 30   7567.256468  13690.208587 -21883.688958     25.582936                    
V 30 -20353.047275  17434.935190   3962.668805       .050350                    
P 31   7348.669167  24747.207685  -5551.340848    113.519378                    
V 31  -1273.176695   7592.804419  31264.650085       .058192                    
P 32  22709.691079  -4126.062584  13028.979312   -294.791435                    
V 32 -12043.405062  11274.671783  25507.061921      -.070818                    
EOF
